NORAD_CAT_ID,OBJECT_NAME,OBJECT_TYPE,EPOCH,MEAN_MOTION,ECCENTRICITY,INCLINATION,RA_OF_ASC_NODE,ARG_OF_PERICENTER,MEAN_ANOMALY,BSTAR,MEAN_MOTION_DOT,MEAN_MOTION_DDOT,TLE_LINE0,TLE_LINE1,TLE_LINE2,SEMIMAJOR_AXIS,PERIOD,APOGEE,PERIGEE,DECAYED
50843.0,STARLINK-3325,PAYLOAD,2022-10-10 12:34:02,15.08842255,0.0001969,53.217,13.3889,47.2207,312.895,0.00021015,3.058e-05,0.0,0 STARLINK-3325,1 50843U 22001AS  22283.52364217  .00003058  00000-0  21015-3 0  9990,2 50843  53.2170  13.3889 0001969  47.2207 312.8950 15.08842255 43330,6917.873000000001,95.437,541.101,538.376,0.0
50843.0,STARLINK-3325,PAYLOAD,2022-10-11 10:49:26,15.08842557,0.0002005999999999,53.218,9.2268,41.5279,318.5866,2.393300000000001e-05,9.3e-07,0.0,0 STARLINK-3325,1 50843U 22001AS  22284.45100066  .00000093  00000-0  23933-4 0  9991,2 50843  53.2180   9.2268 0002006  41.5279 318.5866 15.08842557 42271,6917.873000000001,95.437,541.125,538.35,0.0
50843.0,STARLINK-3325,PAYLOAD,2022-10-12 02:43:18,15.08840909,0.0002073,53.2178,6.2548,37.7428,322.371,0.00013357,1.838e-05,0.0,0 STARLINK-3325,1 50843U 22001AS  22285.11340314  .00001838  00000-0  13357-3 0  9993,2 50843  53.2178   6.2548 0002073  37.7428 322.3710 15.08840909 43577,6917.878000000002,95.437,541.177,538.309,0.0
50843.0,STARLINK-3325,PAYLOAD,2022-10-12 12:15:36,15.08839251,0.0002226,53.2179,4.4704,35.556,324.558,4.297e-05,3.96e-06,0.0,0 STARLINK-3325,1 50843U 22001AS  22285.51084393  .00000396  00000-0  42970-4 0  9991,2 50843  53.2179   4.4704 0002226  35.5560 324.5580 15.08839251 42436,6917.8830000000025,95.438,541.288,538.2080000000002,0.0
50843.0,STARLINK-3325,PAYLOAD,2022-10-13 05:44:51,15.08839189,0.000223,53.2171,1.1996,39.1746,320.9407,0.00017374,2.478e-05,0.0,0 STARLINK-3325,1 50843U 22001AS  22286.23948800  .00002478  00000-0  17374-3 0  9995,2 50843  53.2171   1.1996 0002230  39.1746 320.9407 15.08839189 43749,6917.8830000000025,95.438,541.2909999999998,538.205,0.0
50843.0,STARLINK-3325,PAYLOAD,2022-10-13 12:06:24,15.08838403,0.0002150999999999,53.2185,0.0086,41.0103,319.105,0.00027347,4.067e-05,0.0,0 STARLINK-3325,1 50843U 22001AS  22286.50444846  .00004067  00000-0  27347-3 0  9993,2 50843  53.2185   0.0086 0002151  41.0103 319.1050 15.08838403 42586,6917.885,95.438,541.238,538.262,0.0
50843.0,STARLINK-3325,PAYLOAD,2022-10-14 11:57:11,15.08838465,0.0002173,53.2169,355.5501,40.65,319.4654,0.00014299,1.988e-05,0.0,0 STARLINK-3325,1 50843U 22001AS  22287.49805132  .00001988  00000-0  14299-3 0  9992,2 50843  53.2169 355.5501 0002173  40.6500 319.4654 15.08838465 42736,6917.885,95.438,541.253,538.247,0.0
50843.0,STARLINK-3325,PAYLOAD,2022-10-15 00:40:16,15.08849661,0.0002157,53.2166,353.1705,44.5579,315.5587,0.00023772,3.498e-05,0.0,0 STARLINK-3325,1 50843U 22001AS  22288.02796636  .00003498  00000-0  23772-3 0  9994,2 50843  53.2166 353.1705 0002157  44.5579 315.5587 15.08849661 44019,6917.851,95.437,541.2080000000002,538.224,0.0
50843.0,STARLINK-3325,PAYLOAD,2022-10-15 13:23:21,15.08833781,0.0002133999999999,53.2169,350.7936,35.6559,324.4575,-0.00014824,-2.646e-05,0.0,0 STARLINK-3325,1 50843U 22001AS  22288.55789153 -.00002646  00000-0 -14824-3 0  9992,2 50843  53.2169 350.7936 0002134  35.6559 324.4575 15.08833781 44095,6917.899,95.438,541.241,538.288,0.0
50843.0,STARLINK-3325,PAYLOAD,2022-10-16 11:38:46,15.08829938,0.0002273,53.2168,346.6295,38.5416,321.5738,1.2323e-05,-9.2e-07,0.0,0 STARLINK-3325,1 50843U 22001AS  22289.48526279 -.00000092  00000-0  12323-4 0  9998,2 50843  53.2168 346.6295 0002273  38.5416 321.5738 15.08829938 43035,6917.911,95.438,541.349,538.2040000000002,0.0
50843.0,STARLINK-3325,PAYLOAD,2022-10-16 13:14:10,15.08822715,0.0002209,53.2169,346.3329,36.9133,323.2011,-0.00012187,-2.226e-05,0.0,0 STARLINK-3325,1 50843U 22001AS  22289.55150517 -.00002226  00000-0 -12187-3 0  9993,2 50843  53.2169 346.3329 0002209  36.9133 323.2011 15.08822715 44241,6917.933000000001,95.439,541.326,538.27,0.0
50843.0,STARLINK-3325,PAYLOAD,2022-10-17 03:32:38,15.08839494,0.0002236,53.2171,343.6566,33.3763,326.737,0.00031331,4.702e-05,0.0,0 STARLINK-3325,1 50843U 22001AS  22290.14766445  .00004702  00000-0  31331-3 0  9994,2 50843  53.2171 343.6566 0002236  33.3763 326.7370 15.08839494 44335,6917.882,95.438,541.294,538.2,0.0
50843.0,STARLINK-3325,PAYLOAD,2022-10-17 09:54:10,15.08849493,0.0002276999999999,53.2166,342.4669,32.6579,327.4554,0.00087769,0.00013712,0.0,0 STARLINK-3325,1 50843U 22001AS  22290.41262554  .00013712  00000-0  87769-3 0  9993,2 50843  53.2166 342.4669 0002277  32.6579 327.4554 15.08849493 43175,6917.851,95.437,541.2919999999998,538.141,0.0
50843.0,STARLINK-3325,PAYLOAD,2022-10-18 04:58:48,15.08837923,0.0002223,53.2164,338.8984,35.2864,324.8275,4.8143e-05,4.78e-06,0.0,0 STARLINK-3325,1 50843U 22001AS  22291.20750578  .00000478  00000-0  48143-4 0  9998,2 50843  53.2164 338.8984 0002223  35.2864 324.8275 15.08837923 44491,6917.887,95.438,541.29,538.214,0.0
50843.0,STARLINK-3325,PAYLOAD,2022-10-18 09:44:57,15.08842688,0.0002423,53.2166,338.0069,34.8336,325.2814,0.00016598,2.354e-05,0.0,0 STARLINK-3325,1 50843U 22001AS  22291.40622637  .00002354  00000-0  16598-3 0  9997,2 50843  53.2166 338.0069 0002423  34.8336 325.2814 15.08842688 43329,6917.871999999999,95.437,541.413,538.061,0.0
50843.0,STARLINK-3325,PAYLOAD,2022-10-19 09:35:44,15.08844926,0.0002319,53.217,333.546,37.4912,322.6242,0.0001425,1.981e-05,0.0,0 STARLINK-3325,1 50843U 22001AS  22292.39982477  .00001981  00000-0  14250-3 0  9995,2 50843  53.2170 333.5460 0002319  37.4912 322.6242 15.08844926 43471,6917.865,95.437,541.335,538.126,0.0
50843.0,STARLINK-3325,PAYLOAD,2022-10-19 14:21:54,15.08844695,0.0002414,53.2169,332.6545,36.2308,323.8847,0.00011887,1.604e-05,0.0,0 STARLINK-3325,1 50843U 22001AS  22292.59854450  .00001604  00000-0  11887-3 0  9991,2 50843  53.2169 332.6545 0002414  36.2308 323.8847 15.08844695 43506,6917.866,95.437,541.401,538.061,0.0
50843.0,STARLINK-3325,PAYLOAD,2022-10-20 09:26:31,15.08847446,0.0002366,53.2171,329.086,36.8536,323.2619,0.00026273,3.896e-05,0.0,0 STARLINK-3325,1 50843U 22001AS  22293.39342146  .00003896  00000-0  26273-3 0  9994,2 50843  53.2171 329.0860 0002366  36.8536 323.2619 15.08847446 43625,6917.858,95.437,541.359,538.086,0.0
50843.0,STARLINK-3325,PAYLOAD,2022-10-20 18:58:50,15.08836683,0.0002218999999999,53.2174,327.3018,39.9751,320.1404,-2.476e-05,-6.82e-06,0.0,0 STARLINK-3325,1 50843U 22001AS  22293.79086475 -.00000682  00000-0 -24760-4 0  9990,2 50843  53.2174 327.3018 0002219  39.9751 320.1404 15.08836683 44882,6917.891,95.438,541.2909999999998,538.22,0.0
50843.0,STARLINK-3325,PAYLOAD,2022-10-21 09:17:18,15.08847593,0.0002417,53.2169,324.6255,35.6533,324.462,0.00023038,3.381e-05,0.0,0 STARLINK-3325,1 50843U 22001AS  22294.38702128  .00003381  00000-0  23038-3 0  9999,2 50843  53.2169 324.6255 0002417  35.6533 324.4620 15.08847593 44979,6917.857,95.437,541.394,538.05,0.0
50843.0,STARLINK-3325,PAYLOAD,2022-10-21 10:52:41,15.0884863,0.0002433,53.217,324.3281,35.6064,324.509,0.00025203,3.726e-05,0.0,0 STARLINK-3325,1 50843U 22001AS  22294.45326088  .00003726  00000-0  25203-3 0  9993,2 50843  53.2170 324.3281 0002433  35.6064 324.5090 15.08848630 43787,6917.854,95.437,541.4019999999998,538.036,0.0
50843.0,STARLINK-3325,PAYLOAD,2022-10-21 14:03:27,15.08850582,0.0002391,53.2169,323.7335,36.0074,324.1079,0.00043966,6.718e-05,0.0,0 STARLINK-3325,1 50843U 22001AS  22294.58574044  .00006718  00000-0  43966-3 0  9994,2 50843  53.2169 323.7335 0002391  36.0074 324.1079 15.08850582 43802,6917.848000000001,95.437,541.367,538.059,0.0
50843.0,STARLINK-3325,PAYLOAD,2022-10-22 12:18:52,15.08834682,0.0002452,53.2164,319.57,35.5297,324.5858,-5.9233e-05,-1.231e-05,0.0,0 STARLINK-3325,1 50843U 22001AS  22295.51310483 -.00001231  00000-0 -59233-4 0  9995,2 50843  53.2164 319.5700 0002452  35.5297 324.5858 15.08834682 45146,6917.897,95.438,541.4580000000002,538.065,0.0
50843.0,STARLINK-3325,PAYLOAD,2022-10-22 18:40:24,15.08837277,0.0002479,53.2164,318.3806,35.673,324.4427,-8.4685e-07,-3.02e-06,0.0,0 STARLINK-3325,1 50843U 22001AS  22295.77806422 -.00000302  00000-0 -84685-6 0  9995,2 50843  53.2164 318.3806 0002479  35.6730 324.4427 15.08837277 43986,6917.889,95.438,541.469,538.039,0.0
50843.0,STARLINK-3325,PAYLOAD,2022-10-23 10:34:15,15.08849993,0.0002501,53.2162,315.4065,36.356,323.7601,0.00018048,2.586e-05,0.0,0 STARLINK-3325,1 50843U 22001AS  22296.44045789  .00002586  00000-0  18048-3 0  9992,2 50843  53.2162 315.4065 0002501  36.3560 323.7601 15.08849993 45283,6917.85,95.437,541.445,537.985,0.0
50843.0,STARLINK-3325,PAYLOAD,2022-10-23 18:31:10,15.08856917,0.0002501,53.2158,313.92,36.871,323.2454,0.00033545,5.057e-05,0.0,0 STARLINK-3325,1 50843U 22001AS  22296.77165356  .00005057  00000-0  33545-3 0  9996,2 50843  53.2158 313.9200 0002501  36.8710 323.2454 15.08856917 44132,6917.829000000002,95.436,541.424,537.964,0.0
50843.0,STARLINK-3325,PAYLOAD,2022-10-24 08:49:39,15.08843819,0.0002643,53.2156,311.2446,32.1308,327.9845,-9.036e-06,-4.32e-06,0.0,0 STARLINK-3325,1 50843U 22001AS  22297.36781514 -.00000432  00000-0 -90360-5 0  9996,2 50843  53.2156 311.2446 0002643  32.1308 327.9845 15.08843819 45427,6917.869000000002,95.437,541.562,537.905,0.0
50843.0,STARLINK-3325,PAYLOAD,2022-10-24 18:21:58,15.0882427,0.0002692,53.2153,309.4594,36.9385,323.1792,-0.00041127,-6.825e-05,0.0,0 STARLINK-3325,1 50843U 22001AS  22297.76526329 -.00006825  00000-0 -41127-3 0  9998,2 50843  53.2153 309.4594 0002692  36.9385 323.1792 15.08824270 44280,6917.928000000001,95.439,541.656,537.931,0.0
50843.0,STARLINK-3325,PAYLOAD,2022-10-25 11:51:14,15.08823837,0.0002513,53.2157,306.188,36.4689,323.6474,-4.0666e-05,-9.35e-06,0.0,0 STARLINK-3325,1 50843U 22001AS  22298.49391356 -.00000935  00000-0 -40666-4 0  9993,2 50843  53.2157 306.1880 0002513  36.4689 323.6474 15.08823837 44392,6917.93,95.439,541.533,538.056,0.0
